model,file,norad_id,feature,RMSE,MAPE%,h,w,span,overall_acc_percent,hidden,layers,heads,horizon_days,levels,epochs,batches,kernel,d_model,blocks
cnnlstm,37791_tle_20250729_214501_last90d_enctrig_w60_h30,37791,arg_perigee_deg,29.02900406694412,,30,60.0,last90d,99.96358021599008,512.0,,,,,120.0,128.0,5.0,,
cnnlstm,37791_tle_20250729_214501_last90d_enctrig_w60_h30,37791,mean_anomaly_deg,27.293075630892236,,30,60.0,last90d,99.96358021599008,512.0,,,,,120.0,128.0,5.0,,
cnnlstm,37791_tle_20250729_214501_full_enctrig_w30_h1,37791,eccentricity,0.00019406081490862555,0.9266138076782227,1,30.0,full,99.66162400863443,512.0,,,,,120.0,128.0,5.0,,
cnnlstm,37791_tle_20250729_214501_full_enctrig_w30_h1,37791,mean_motion,0.008196909694946106,0.049103330820798874,1,30.0,full,99.66162400863443,512.0,,,,,120.0,128.0,5.0,,
cnnlstm,37791_tle_20250729_214501_full_enctrig_w30_h1,37791,semi_major_axis,3.1340630905724405,0.03941083559766412,1,30.0,full,99.66162400863443,512.0,,,,,120.0,128.0,5.0,,
cnnlstm,37791_tle_20250729_214501_full_enctrig_w30_h1,37791,inclination_deg,0.005688821370763312,,1,30.0,full,99.66162400863443,512.0,,,,,120.0,128.0,5.0,,
cnnlstm,37791_tle_20250729_214501_full_enctrig_w30_h1,37791,raan_deg,1001.5272490190312,,1,30.0,full,99.66162400863443,512.0,,,,,120.0,128.0,5.0,,
cnnlstm,37791_tle_20250729_214501_full_enctrig_w30_h1,37791,arg_perigee_deg,28.096522735791883,,1,30.0,full,99.66162400863443,512.0,,,,,120.0,128.0,5.0,,
cnnlstm,37791_tle_20250729_214501_full_enctrig_w30_h1,37791,mean_anomaly_deg,213.19406867705797,,1,30.0,full,99.66162400863443,512.0,,,,,120.0,128.0,5.0,,
cnnlstm,37791_tle_20250729_214501_full_enctrig_w60_h3,37791,eccentricity,0.00018561295035965188,0.8830993436276913,3,60.0,full,99.68832064623712,512.0,,,,,120.0,128.0,5.0,,
cnnlstm,37791_tle_20250729_214501_full_enctrig_w60_h3,37791,mean_motion,0.003701284477116033,0.022279693803284317,3,60.0,full,99.68832064623712,512.0,,,,,120.0,128.0,5.0,,
cnnlstm,37791_tle_20250729_214501_full_enctrig_w60_h3,37791,semi_major_axis,2.5467348586767273,0.029659023857675493,3,60.0,full,99.68832064623712,512.0,,,,,120.0,128.0,5.0,,
cnnlstm,37791_tle_20250729_214501_full_enctrig_w60_h3,37791,inclination_deg,0.012917806209908199,,3,60.0,full,99.68832064623712,512.0,,,,,120.0,128.0,5.0,,
cnnlstm,37791_tle_20250729_214501_full_enctrig_w60_h3,37791,raan_deg,1238.8330465983931,,3,60.0,full,99.68832064623712,512.0,,,,,120.0,128.0,5.0,,
cnnlstm,37791_tle_20250729_214501_full_enctrig_w60_h3,37791,arg_perigee_deg,36.62069102752159,,3,60.0,full,99.68832064623712,512.0,,,,,120.0,128.0,5.0,,
cnnlstm,37791_tle_20250729_214501_full_enctrig_w60_h3,37791,mean_anomaly_deg,12.881712015208308,,3,60.0,full,99.68832064623712,512.0,,,,,120.0,128.0,5.0,,
cnnlstm,37791_tle_20250729_214501_last180d_enctrig_w30_h30,37791,eccentricity,0.0001146973342512814,0.5725110415369272,30,30.0,last180d,99.8060986315977,512.0,,,,,120.0,128.0,5.0,,
cnnlstm,37791_tle_20250729_214501_last180d_enctrig_w30_h30,37791,mean_motion,0.0008533561834131143,0.004830906982533634,30,30.0,last180d,99.8060986315977,512.0,,,,,120.0,128.0,5.0,,
cnnlstm,37791_tle_20250729_214501_last180d_enctrig_w30_h30,37791,semi_major_axis,0.3558779865510727,0.004362156687420793,30,30.0,last180d,99.8060986315977,512.0,,,,,120.0,128.0,5.0,,
cnnlstm,37791_tle_20250729_214501_last180d_enctrig_w30_h30,37791,inclination_deg,0.0015368885502558228,,30,30.0,last180d,99.8060986315977,512.0,,,,,120.0,128.0,5.0,,
cnnlstm,37791_tle_20250729_214501_last180d_enctrig_w30_h30,37791,raan_deg,11.399273243596753,,30,30.0,last180d,99.8060986315977,512.0,,,,,120.0,128.0,5.0,,
cnnlstm,37791_tle_20250729_214501_last180d_enctrig_w30_h30,37791,arg_perigee_deg,226.65234171954282,,30,30.0,last180d,99.8060986315977,512.0,,,,,120.0,128.0,5.0,,
cnnlstm,37791_tle_20250729_214501_last180d_enctrig_w30_h30,37791,mean_anomaly_deg,288.049376621651,,30,30.0,last180d,99.8060986315977,512.0,,,,,120.0,128.0,5.0,,
cnnlstm,37791_tle_20250729_214501_last180d_enctrig_w30_h7,37791,eccentricity,9.28197098509392e-05,0.4628268536180258,7,30.0,last180d,99.84259233545647,512.0,,,,,120.0,128.0,5.0,,
cnnlstm,37791_tle_20250729_214501_last180d_enctrig_w30_h7,37791,mean_motion,0.0008481428555454258,0.004862728383159265,7,30.0,last180d,99.84259233545647,512.0,,,,,120.0,128.0,5.0,,
cnnlstm,37791_tle_20250729_214501_last180d_enctrig_w30_h7,37791,semi_major_axis,0.3709029259191663,0.00453341162938159,7,30.0,last180d,99.84259233545647,512.0,,,,,120.0,128.0,5.0,,
cnnlstm,37791_tle_20250729_214501_last180d_enctrig_w30_h7,37791,inclination_deg,0.0016586588503157828,,7,30.0,last180d,99.84259233545647,512.0,,,,,120.0,128.0,5.0,,
cnnlstm,37791_tle_20250729_214501_last180d_enctrig_w30_h7,37791,raan_deg,14.127109071674568,,7,30.0,last180d,99.84259233545647,512.0,,,,,120.0,128.0,5.0,,
cnnlstm,37791_tle_20250729_214501_last180d_enctrig_w30_h7,37791,arg_perigee_deg,223.00380492908374,,7,30.0,last180d,99.84259233545647,512.0,,,,,120.0,128.0,5.0,,
cnnlstm,37791_tle_20250729_214501_last180d_enctrig_w30_h7,37791,mean_anomaly_deg,274.35137759967705,,7,30.0,last180d,99.84259233545647,512.0,,,,,120.0,128.0,5.0,,
cnnlstm,37791_tle_20250729_214501_last90d_enctrig_w30_h7,37791,eccentricity,4.780075816807514e-05,0.21348216105252504,7,30.0,last90d,99.92720135281463,512.0,,,,,120.0,128.0,5.0,,
cnnlstm,37791_tle_20250729_214501_last90d_enctrig_w30_h7,37791,mean_motion,0.00048741780538002626,0.0032731390092521906,7,30.0,last90d,99.92720135281463,512.0,,,,,120.0,128.0,5.0,,
cnnlstm,37791_tle_20250729_214501_last90d_enctrig_w30_h7,37791,semi_major_axis,0.13248062040423497,0.001640641494304873,7,30.0,last90d,99.92720135281463,512.0,,,,,120.0,128.0,5.0,,
cnnlstm,37791_tle_20250729_214501_last90d_enctrig_w30_h7,37791,inclination_deg,0.0001570268421359574,,7,30.0,last90d,99.92720135281463,512.0,,,,,120.0,128.0,5.0,,
cnnlstm,37791_tle_20250729_214501_last90d_enctrig_w30_h7,37791,raan_deg,9.169233555060515,,7,30.0,last90d,99.92720135281463,512.0,,,,,120.0,128.0,5.0,,
cnnlstm,37791_tle_20250729_214501_last90d_enctrig_w30_h7,37791,arg_perigee_deg,84.47771942844199,,7,30.0,last90d,99.92720135281463,512.0,,,,,120.0,128.0,5.0,,
cnnlstm,37791_tle_20250729_214501_last90d_enctrig_w30_h7,37791,mean_anomaly_deg,41.63240380272098,,7,30.0,last90d,99.92720135281463,512.0,,,,,120.0,128.0,5.0,,
cnnlstm,37791_tle_20250729_214501_full_enctrig_w90_h1,37791,eccentricity,0.0001977989095060057,0.9429773315787315,1,90.0,full,99.66072029007289,512.0,,,,,120.0,128.0,5.0,,
cnnlstm,37791_tle_20250729_214501_full_enctrig_w90_h1,37791,mean_motion,0.006491303451570942,0.038576117367483675,1,90.0,full,99.66072029007289,512.0,,,,,120.0,128.0,5.0,,
cnnlstm,37791_tle_20250729_214501_full_enctrig_w90_h1,37791,semi_major_axis,2.967257797268249,0.03628568083513528,1,90.0,full,99.66072029007289,512.0,,,,,120.0,128.0,5.0,,
cnnlstm,37791_tle_20250729_214501_full_enctrig_w90_h1,37791,inclination_deg,0.020512994075992233,,1,90.0,full,99.66072029007289,512.0,,,,,120.0,128.0,5.0,,
cnnlstm,37791_tle_20250729_214501_full_enctrig_w90_h1,37791,raan_deg,1126.9319264070532,,1,90.0,full,99.66072029007289,512.0,,,,,120.0,128.0,5.0,,
cnnlstm,37791_tle_20250729_214501_full_enctrig_w90_h1,37791,arg_perigee_deg,36.22476886699805,,1,90.0,full,99.66072029007289,512.0,,,,,120.0,128.0,5.0,,
cnnlstm,37791_tle_20250729_214501_full_enctrig_w90_h1,37791,mean_anomaly_deg,19.579264887954935,,1,90.0,full,99.66072029007289,512.0,,,,,120.0,128.0,5.0,,
cnnlstm,37791_tle_20250729_214501_last365d_enctrig_w30_h90,37791,eccentricity,6.044638543674938e-05,0.3015356371179223,90,30.0,last365d,99.89281536957908,512.0,,,,,120.0,128.0,5.0,,
cnnlstm,37791_tle_20250729_214501_last365d_enctrig_w30_h90,37791,mean_motion,0.0017332002879526015,0.010736087278928608,90,30.0,last365d,99.89281536957908,512.0,,,,,120.0,128.0,5.0,,
cnnlstm,37791_tle_20250729_214501_last365d_enctrig_w30_h90,37791,semi_major_axis,0.7621016102624532,0.00928216686588712,90,30.0,last365d,99.89281536957908,512.0,,,,,120.0,128.0,5.0,,
cnnlstm,37791_tle_20250729_214501_last365d_enctrig_w30_h90,37791,inclination_deg,0.003237509041263549,,90,30.0,last365d,99.89281536957908,512.0,,,,,120.0,128.0,5.0,,
cnnlstm,37791_tle_20250729_214501_last365d_enctrig_w30_h90,37791,raan_deg,54.64554317171232,,90,30.0,last365d,99.89281536957908,512.0,,,,,120.0,128.0,5.0,,
cnnlstm,37791_tle_20250729_214501_last365d_enctrig_w30_h90,37791,arg_perigee_deg,17.87513781267863,,90,30.0,last365d,99.89281536957908,512.0,,,,,120.0,128.0,5.0,,
cnnlstm,37791_tle_20250729_214501_last365d_enctrig_w30_h90,37791,mean_anomaly_deg,99.93147321808105,,90,30.0,last365d,99.89281536957908,512.0,,,,,120.0,128.0,5.0,,
cnnlstm,37791_tle_20250729_214501_last365d_enctrig_w60_h7,37791,eccentricity,6.944698923738419e-05,0.346097769215703,7,60.0,last365d,99.88079736164461,512.0,,,,,120.0,128.0,5.0,,
cnnlstm,37791_tle_20250729_214501_last365d_enctrig_w60_h7,37791,mean_motion,0.0005436707953204759,0.00322642590617761,7,60.0,last365d,99.88079736164461,512.0,,,,,120.0,128.0,5.0,,
cnnlstm,37791_tle_20250729_214501_last365d_enctrig_w60_h7,37791,semi_major_axis,0.6816546375834621,0.008283719944301993,7,60.0,last365d,99.88079736164461,512.0,,,,,120.0,128.0,5.0,,
cnnlstm,37791_tle_20250729_214501_last365d_enctrig_w60_h7,37791,inclination_deg,0.002642790454669022,,7,60.0,last365d,99.88079736164461,512.0,,,,,120.0,128.0,5.0,,
cnnlstm,37791_tle_20250729_214501_last365d_enctrig_w60_h7,37791,raan_deg,61.60530103028021,,7,60.0,last365d,99.88079736164461,512.0,,,,,120.0,128.0,5.0,,
cnnlstm,37791_tle_20250729_214501_last365d_enctrig_w60_h7,37791,arg_perigee_deg,20.816452910812487,,7,60.0,last365d,99.88079736164461,512.0,,,,,120.0,128.0,5.0,,
cnnlstm,37791_tle_20250729_214501_last365d_enctrig_w60_h7,37791,mean_anomaly_deg,97.33456016356133,,7,60.0,last365d,99.88079736164461,512.0,,,,,120.0,128.0,5.0,,
cnnlstm,37791_tle_20250729_214501_last90d_enctrig_w30_h30,37791,eccentricity,5.903027816861557e-05,0.27477049734443426,30,30.0,last90d,99.90725377804968,512.0,,,,,120.0,128.0,5.0,,
